[{"OBJECT_NAME":"STARLINK-36931","OBJECT_ID":"2026-039Q","EPOCH":"2026-03-07T04:00:03.000096","MEAN_MOTION":15.93661458,"ECCENTRICITY":0.0001698,"INCLINATION":42.9973,"RA_OF_ASC_NODE":70.439,"ARG_OF_PERICENTER":268.0149,"MEAN_ANOMALY":135.1329,"EPHEMERIS_TYPE":0,"CLASSIFICATION_TYPE":"U","NORAD_CAT_ID":68000,"ELEMENT_SET_NO":999,"REV_AT_EPOCH":247,"BSTAR":-0.0045089,"MEAN_MOTION_DOT":-0.01684657,"MEAN_MOTION_DDOT":0.00079861},{"OBJECT_NAME":"STARLINK-36903","OBJECT_ID":"2026-039R","EPOCH":"2026-03-07T04:00:03.000096","MEAN_MOTION":15.93794294,"ECCENTRICITY":0.0001731,"INCLINATION":42.9975,"RA_OF_ASC_NODE":70.4323,"ARG_OF_PERICENTER":270.752,"MEAN_ANOMALY":135.0223,"EPHEMERIS_TYPE":0,"CLASSIFICATION_TYPE":"U","NORAD_CAT_ID":68001,"ELEMENT_SET_NO":999,"REV_AT_EPOCH":247,"BSTAR":-0.0044592,"MEAN_MOTION_DOT":-0.01677967,"MEAN_MOTION_DDOT":0.00079382},{"OBJECT_NAME":"STARLINK-36898","OBJECT_ID":"2026-039S","EPOCH":"2026-03-07T04:00:03.000096","MEAN_MOTION":15.9406844,"ECCENTRICITY":0.0001751,"INCLINATION":42.9974,"RA_OF_ASC_NODE":70.4194,"ARG_OF_PERICENTER":273.1044,"MEAN_ANOMALY":137.6312,"EPHEMERIS_TYPE":0,"CLASSIFICATION_TYPE":"U","NORAD_CAT_ID":68002,"ELEMENT_SET_NO":999,"REV_AT_EPOCH":247,"BSTAR":-0.004378,"MEAN_MOTION_DOT":-0.01671736,"MEAN_MOTION_DDOT":0.00079055},{"OBJECT_NAME":"STARLINK-36862","OBJECT_ID":"2026-039T","EPOCH":"2026-03-07T04:00:03.000096","MEAN_MOTION":15.9434356,"ECCENTRICITY":0.000174,"INCLINATION":42.9974,"RA_OF_ASC_NODE":70.4077,"ARG_OF_PERICENTER":272.3551,"MEAN_ANOMALY":143.0236,"EPHEMERIS_TYPE":0,"CLASSIFICATION_TYPE":"U","NORAD_CAT_ID":68003,"ELEMENT_SET_NO":999,"REV_AT_EPOCH":247,"BSTAR":-0.0043014,"MEAN_MOTION_DOT":-0.01666833,"MEAN_MOTION_DDOT":0.00078845},{"OBJECT_NAME":"STARLINK-36888","OBJECT_ID":"2026-039U","EPOCH":"2026-03-07T04:00:03.000096","MEAN_MOTION":15.93930182,"ECCENTRICITY":0.0001703,"INCLINATION":42.9975,"RA_OF_ASC_NODE":70.4263,"ARG_OF_PERICENTER":273.7298,"MEAN_ANOMALY":134.453,"EPHEMERIS_TYPE":0,"CLASSIFICATION_TYPE":"U","NORAD_CAT_ID":68004,"ELEMENT_SET_NO":999,"REV_AT_EPOCH":247,"BSTAR":-0.0044125,"MEAN_MOTION_DOT":-0.01672489,"MEAN_MOTION_DDOT":0.00079011},{"OBJECT_NAME":"STARLINK-36910","OBJECT_ID":"2026-039V","EPOCH":"2026-03-07T04:00:03.000096","MEAN_MOTION":15.94208008,"ECCENTRICITY":0.0001737,"INCLINATION":42.9973,"RA_OF_ASC_NODE":70.4133,"ARG_OF_PERICENTER":274.5128,"MEAN_ANOMALY":138.6738,"EPHEMERIS_TYPE":0,"CLASSIFICATION_TYPE":"U","NORAD_CAT_ID":68005,"ELEMENT_SET_NO":999,"REV_AT_EPOCH":247,"BSTAR":-0.00436,"MEAN_MOTION_DOT":-0.0167723,"MEAN_MOTION_DDOT":0.00079647},{"OBJECT_NAME":"STARLINK-36889","OBJECT_ID":"2026-039W","EPOCH":"2026-03-07T04:00:03.000096","MEAN_MOTION":15.94474344,"ECCENTRICITY":0.0001712,"INCLINATION":42.9974,"RA_OF_ASC_NODE":70.4014,"ARG_OF_PERICENTER":276.7578,"MEAN_ANOMALY":140.9208,"EPHEMERIS_TYPE":0,"CLASSIFICATION_TYPE":"U","NORAD_CAT_ID":68006,"ELEMENT_SET_NO":999,"REV_AT_EPOCH":247,"BSTAR":-0.004233,"MEAN_MOTION_DOT":-0.01652054,"MEAN_MOTION_DDOT":0.00077662},{"OBJECT_NAME":"STARLINK-36592","OBJECT_ID":"2026-039X","EPOCH":"2026-03-07T04:00:03.000096","MEAN_MOTION":15.94636733,"ECCENTRICITY":0.0001694,"INCLINATION":42.9972,"RA_OF_ASC_NODE":70.3962,"ARG_OF_PERICENTER":275.0956,"MEAN_ANOMALY":144.8636,"EPHEMERIS_TYPE":0,"CLASSIFICATION_TYPE":"U","NORAD_CAT_ID":68007,"ELEMENT_SET_NO":999,"REV_AT_EPOCH":247,"BSTAR":-0.0043264,"MEAN_MOTION_DOT":-0.01702601,"MEAN_MOTION_DDOT":0.00082241},{"OBJECT_NAME":"STARLINK-36911","OBJECT_ID":"2026-039Y","EPOCH":"2026-03-07T04:00:03.000096","MEAN_MOTION":15.94745269,"ECCENTRICITY":0.0001791,"INCLINATION":42.9974,"RA_OF_ASC_NODE":70.3901,"ARG_OF_PERICENTER":273.1866,"MEAN_ANOMALY":149.1847,"EPHEMERIS_TYPE":0,"CLASSIFICATION_TYPE":"U","NORAD_CAT_ID":68008,"ELEMENT_SET_NO":999,"REV_AT_EPOCH":247,"BSTAR":-0.0041625,"MEAN_MOTION_DOT":-0.01648388,"MEAN_MOTION_DDOT":0.00077556},{"OBJECT_NAME":"STARLINK-36956","OBJECT_ID":"2026-039Z","EPOCH":"2026-03-07T04:00:03.000096","MEAN_MOTION":15.94879699,"ECCENTRICITY":0.0001626,"INCLINATION":42.9972,"RA_OF_ASC_NODE":70.3841,"ARG_OF_PERICENTER":271.7765,"MEAN_ANOMALY":152.8923,"EPHEMERIS_TYPE":0,"CLASSIFICATION_TYPE":"U","NORAD_CAT_ID":68009,"ELEMENT_SET_NO":999,"REV_AT_EPOCH":247,"BSTAR":-0.004124,"MEAN_MOTION_DOT":-0.01645,"MEAN_MOTION_DDOT":0.00077367},{"OBJECT_NAME":"STARLINK-36953","OBJECT_ID":"2026-039AA","EPOCH":"2026-03-07T04:00:03.000096","MEAN_MOTION":15.95152388,"ECCENTRICITY":0.0001716,"INCLINATION":42.9972,"RA_OF_ASC_NODE":70.3713,"ARG_OF_PERICENTER":273.2118,"MEAN_ANOMALY":156.4355,"EPHEMERIS_TYPE":0,"CLASSIFICATION_TYPE":"U","NORAD_CAT_ID":68010,"ELEMENT_SET_NO":999,"REV_AT_EPOCH":247,"BSTAR":-0.0040943,"MEAN_MOTION_DOT":-0.01657204,"MEAN_MOTION_DDOT":0.00078646},{"OBJECT_NAME":"STARLINK-36991","OBJECT_ID":"2026-039AB","EPOCH":"2026-03-07T04:00:03.000096","MEAN_MOTION":15.95282454,"ECCENTRICITY":0.0001669,"INCLINATION":42.9971,"RA_OF_ASC_NODE":70.3652,"ARG_OF_PERICENTER":272.8863,"MEAN_ANOMALY":159.2063,"EPHEMERIS_TYPE":0,"CLASSIFICATION_TYPE":"U","NORAD_CAT_ID":68011,"ELEMENT_SET_NO":999,"REV_AT_EPOCH":247,"BSTAR":-0.0040609,"MEAN_MOTION_DOT":-0.01655294,"MEAN_MOTION_DDOT":0.00078583},{"OBJECT_NAME":"STARLINK-36936","OBJECT_ID":"2026-039AC","EPOCH":"2026-03-07T04:00:03.000096","MEAN_MOTION":15.95557478,"ECCENTRICITY":0.0001633,"INCLINATION":42.9971,"RA_OF_ASC_NODE":70.3526,"ARG_OF_PERICENTER":267.7037,"MEAN_ANOMALY":169.1788,"EPHEMERIS_TYPE":0,"CLASSIFICATION_TYPE":"U","NORAD_CAT_ID":68012,"ELEMENT_SET_NO":999,"REV_AT_EPOCH":247,"BSTAR":-0.0040393,"MEAN_MOTION_DOT":-0.01670985,"MEAN_MOTION_DDOT":0.00080189},{"OBJECT_NAME":"STARLINK-36967","OBJECT_ID":"2026-039AD","EPOCH":"2026-03-07T04:00:03.000096","MEAN_MOTION":15.95012519,"ECCENTRICITY":0.0001698,"INCLINATION":42.997,"RA_OF_ASC_NODE":70.3774,"ARG_OF_PERICENTER":272.5073,"MEAN_ANOMALY":154.5807,"EPHEMERIS_TYPE":0,"CLASSIFICATION_TYPE":"U","NORAD_CAT_ID":68013,"ELEMENT_SET_NO":999,"REV_AT_EPOCH":247,"BSTAR":-0.0040941,"MEAN_MOTION_DOT":-0.01644815,"MEAN_MOTION_DDOT":0.00077455},{"OBJECT_NAME":"STARLINK-36985","OBJECT_ID":"2026-039AE","EPOCH":"2026-03-07T04:00:03.000096","MEAN_MOTION":15.95416158,"ECCENTRICITY":0.0001644,"INCLINATION":42.9971,"RA_OF_ASC_NODE":70.3592,"ARG_OF_PERICENTER":275.7122,"MEAN_ANOMALY":158.6985,"EPHEMERIS_TYPE":0,"CLASSIFICATION_TYPE":"U","NORAD_CAT_ID":68014,"ELEMENT_SET_NO":999,"REV_AT_EPOCH":247,"BSTAR":-0.0040242,"MEAN_MOTION_DOT":-0.01652263,"MEAN_MOTION_DDOT":0.00078424},{"OBJECT_NAME":"STARLINK-36335","OBJECT_ID":"2026-040A","EPOCH":"2026-03-07T04:00:03.000096","MEAN_MOTION":16.09626784,"ECCENTRICITY":9.8e-5,"INCLINATION":97.2836,"RA_OF_ASC_NODE":14.0864,"ARG_OF_PERICENTER":91.8677,"MEAN_ANOMALY":195.9051,"EPHEMERIS_TYPE":0,"CLASSIFICATION_TYPE":"U","NORAD_CAT_ID":68015,"ELEMENT_SET_NO":999,"REV_AT_EPOCH":196,"BSTAR":-0.00086368,"MEAN_MOTION_DOT":-0.00781116,"MEAN_MOTION_DDOT":0.00023306}]
